0 COSMOS 1691
1 16139U 85094B   13282.47084078  .00000006  00000-0 -28670-4 0  8904
2 16139 082.6154 353.8943 0000721 192.5059 252.2394 12.62360771290603
0 COSMOS 1691
1 16139U 85094B   13286.83735509  .00000054  00000-0  24245-3 0  8927
2 16139 082.6146 351.1214 0000904 181.4197 297.0432 12.62360544291158
0 COSMOS 1691
1 16139U 85094B   13289.20071876  .00000042  00000-0  17752-3 0  8934
2 16139 082.6140 349.6205 0000977 181.0134 232.3906 12.62360705291451
0 COSMOS 1691
1 16139U 85094B   13291.42085326  .00000029  00000-0  10342-3 0  8940
2 16139 082.6137 348.2103 0001081 176.6998 241.0682 12.62360985291733
0 COSMOS 1691
1 16139U 85094B   13293.81236918  .00000012  00000-0  54212-5 0  8959
2 16139 082.6134 346.6909 0001197 172.3449 308.2424 12.62361202292035
0 COSMOS 1691
1 16139U 85094B   13296.17529916  .00000014  00000-0  17346-4 0  8963
2 16139 082.6133 345.1898 0001284 170.0569 243.5076 12.62361191292334
